ONEWEB-0249             
1 48967U 21060A   25333.10410101  .00000109  00000+0  25201-3 0  9999
2 48967  87.9030 268.6211 0001962  75.6199 284.5149 13.16594190213282
ONEWEB-0250             
1 48968U 21060B   25332.86416586  .00000028  00000+0  34654-4 0  9998
2 48968  87.9028 267.0803 0002045  46.7664 313.3642 13.25818723213672
ONEWEB-0252             
1 48970U 21060D   25333.05974608 -.00000017  00000+0 -76836-4 0  9995
2 48970  87.9036 268.6236 0001920  83.7756 276.3594 13.16591954213325
ONEWEB-0253             
1 48971U 21060E   25332.82070110  .00000090  00000+0  20065-3 0  9996
2 48971  87.9033 268.6755 0002036  76.9888 283.1470 13.16595112213226
ONEWEB-0254             
1 48972U 21060F   25333.21018397  .00000088  00000+0  19722-3 0  9995
2 48972  87.9042 268.5888 0002170  72.1023 288.0345 13.16596219213270
ONEWEB-0255             
1 48973U 21060G   25333.09618646 -.00000013  00000+0 -66396-4 0  9995
2 48973  87.9026 268.6285 0002037  73.7146 286.4209 13.16593916213339
ONEWEB-0256             
1 48974U 21060H   25333.19830851  .00000126  00000+0  29542-3 0  9995
2 48974  87.9026 268.6174 0001787  81.3216 278.8117 13.16593395213313
ONEWEB-0257             
1 48975U 21060J   25333.07876696  .00000059  00000+0  12183-3 0  9998
2 48975  87.9038 268.6184 0002033  77.9346 282.2012 13.16594552213250
